{"fetched_at":"2026-07-19T17:31:11.372Z","source":"https://celestrak.org/NORAD/elements/gp.php?GROUP=planet&FORMAT=JSON","constellation":"superdove","records":[{"OBJECT_NAME":"FLOCK 4BE-3","OBJECT_ID":"2024-149CX","EPOCH":"2026-07-19T04:52:09.032448","CLASSIFICATION_TYPE":"U","MEAN_MOTION":15.42477975,"ECCENTRICITY":0.0005288,"INCLINATION":97.3687,"RA_OF_ASC_NODE":284.4418,"ARG_OF_PERICENTER":157.2285,"MEAN_ANOMALY":202.9198,"EPHEMERIS_TYPE":0,"NORAD_CAT_ID":60561,"ELEMENT_SET_NO":999,"REV_AT_EPOCH":10727,"BSTAR":0.00023086313,"MEAN_MOTION_DOT":0.00009917,"MEAN_MOTION_DDOT":0},{"OBJECT_NAME":"FLOCK 4BE-19","OBJECT_ID":"2024-149CZ","EPOCH":"2026-07-19T04:24:47.372832","CLASSIFICATION_TYPE":"U","MEAN_MOTION":15.45774861,"ECCENTRICITY":0.00061254,"INCLINATION":97.3734,"RA_OF_ASC_NODE":286.1287,"ARG_OF_PERICENTER":163.2101,"MEAN_ANOMALY":196.9352,"EPHEMERIS_TYPE":0,"NORAD_CAT_ID":60563,"ELEMENT_SET_NO":999,"REV_AT_EPOCH":10736,"BSTAR":0.00032239489,"MEAN_MOTION_DOT":0.00015536,"MEAN_MOTION_DDOT":0},{"OBJECT_NAME":"FLOCK 4G-8","OBJECT_ID":"2025-009E","EPOCH":"2026-07-19T04:43:06.360960","CLASSIFICATION_TYPE":"U","MEAN_MOTION":15.30287008,"ECCENTRICITY":0.00044038,"INCLINATION":97.3997,"RA_OF_ASC_NODE":282.0779,"ARG_OF_PERICENTER":178.454,"MEAN_ANOMALY":181.6715,"EPHEMERIS_TYPE":0,"NORAD_CAT_ID":62613,"ELEMENT_SET_NO":999,"REV_AT_EPOCH":8381,"BSTAR":0.00017972572,"MEAN_MOTION_DOT":0.00005189,"MEAN_MOTION_DDOT":0},{"OBJECT_NAME":"FLOCK 4G-13","OBJECT_ID":"2025-009N","EPOCH":"2026-07-19T04:01:32.969280","CLASSIFICATION_TYPE":"U","MEAN_MOTION":15.49325939,"ECCENTRICITY":0.00068162,"INCLINATION":97.3942,"RA_OF_ASC_NODE":284.118,"ARG_OF_PERICENTER":187.7888,"MEAN_ANOMALY":172.3258,"EPHEMERIS_TYPE":0,"NORAD_CAT_ID":62621,"ELEMENT_SET_NO":999,"REV_AT_EPOCH":8394,"BSTAR":0.00089631378,"MEAN_MOTION_DOT":0.00049238,"MEAN_MOTION_DDOT":0},{"OBJECT_NAME":"FLOCK 4G-9","OBJECT_ID":"2025-009P","EPOCH":"2026-07-19T03:48:05.877504","CLASSIFICATION_TYPE":"U","MEAN_MOTION":15.28547885,"ECCENTRICITY":0.00044723,"INCLINATION":97.395,"RA_OF_ASC_NODE":280.8819,"ARG_OF_PERICENTER":190.2565,"MEAN_ANOMALY":169.8584,"EPHEMERIS_TYPE":0,"NORAD_CAT_ID":62622,"ELEMENT_SET_NO":999,"REV_AT_EPOCH":8374,"BSTAR":0.00017253135,"MEAN_MOTION_DOT":0.00004718,"MEAN_MOTION_DDOT":0},{"OBJECT_NAME":"FLOCK 4G-7","OBJECT_ID":"2025-009R","EPOCH":"2026-07-19T04:21:36.052992","CLASSIFICATION_TYPE":"U","MEAN_MOTION":15.29919426,"ECCENTRICITY":0.00030068,"INCLINATION":97.3933,"RA_OF_ASC_NODE":281.3287,"ARG_OF_PERICENTER":169.8608,"MEAN_ANOMALY":190.2694,"EPHEMERIS_TYPE":0,"NORAD_CAT_ID":62624,"ELEMENT_SET_NO":999,"REV_AT_EPOCH":8379,"BSTAR":0.00018432169,"MEAN_MOTION_DOT":0.00005263,"MEAN_MOTION_DDOT":0},{"OBJECT_NAME":"FLOCK 4G-12","OBJECT_ID":"2025-009S","EPOCH":"2026-07-19T04:15:09.161568","CLASSIFICATION_TYPE":"U","MEAN_MOTION":15.2982131,"ECCENTRICITY":0.00046021,"INCLINATION":97.4012,"RA_OF_ASC_NODE":281.8776,"ARG_OF_PERICENTER":175.4893,"MEAN_ANOMALY":184.639,"EPHEMERIS_TYPE":0,"NORAD_CAT_ID":62625,"ELEMENT_SET_NO":999,"REV_AT_EPOCH":8379,"BSTAR":0.00020605758,"MEAN_MOTION_DOT":0.00005876,"MEAN_MOTION_DDOT":0},{"OBJECT_NAME":"FLOCK 4G-11","OBJECT_ID":"2025-009W","EPOCH":"2026-07-19T05:27:07.749792","CLASSIFICATION_TYPE":"U","MEAN_MOTION":15.29930279,"ECCENTRICITY":0.00030789,"INCLINATION":97.3912,"RA_OF_ASC_NODE":281.4811,"ARG_OF_PERICENTER":172.6204,"MEAN_ANOMALY":187.5083,"EPHEMERIS_TYPE":0,"NORAD_CAT_ID":62629,"ELEMENT_SET_NO":999,"REV_AT_EPOCH":8381,"BSTAR":0.00020297627,"MEAN_MOTION_DOT":0.00005806,"MEAN_MOTION_DDOT":0},{"OBJECT_NAME":"FLOCK 4G-26","OBJECT_ID":"2025-009AA","EPOCH":"2026-07-19T04:11:46.716864","CLASSIFICATION_TYPE":"U","MEAN_MOTION":15.30124858,"ECCENTRICITY":0.00040245,"INCLINATION":97.4009,"RA_OF_ASC_NODE":282.0378,"ARG_OF_PERICENTER":165.7545,"MEAN_ANOMALY":194.381,"EPHEMERIS_TYPE":0,"NORAD_CAT_ID":62633,"ELEMENT_SET_NO":999,"REV_AT_EPOCH":8380,"BSTAR":0.00022185227,"MEAN_MOTION_DOT":0.00006392,"MEAN_MOTION_DDOT":0},{"OBJECT_NAME":"FLOCK 4G-28","OBJECT_ID":"2025-009AB","EPOCH":"2026-07-19T04:36:48.665088","CLASSIFICATION_TYPE":"U","MEAN_MOTION":15.35320114,"ECCENTRICITY":0.00024844,"INCLINATION":97.4019,"RA_OF_ASC_NODE":284.8721,"ARG_OF_PERICENTER":153.4279,"MEAN_ANOMALY":206.7092,"EPHEMERIS_TYPE":0,"NORAD_CAT_ID":62634,"ELEMENT_SET_NO":999,"REV_AT_EPOCH":8399,"BSTAR":0.00013748368,"MEAN_MOTION_DOT":0.00004634,"MEAN_MOTION_DDOT":0},{"OBJECT_NAME":"FLOCK 4G-24","OBJECT_ID":"2025-009AE","EPOCH":"2026-07-19T04:26:54.535488","CLASSIFICATION_TYPE":"U","MEAN_MOTION":15.30412486,"ECCENTRICITY":0.00040368,"INCLINATION":97.4016,"RA_OF_ASC_NODE":282.3552,"ARG_OF_PERICENTER":154.358,"MEAN_ANOMALY":205.7862,"EPHEMERIS_TYPE":0,"NORAD_CAT_ID":62637,"ELEMENT_SET_NO":999,"REV_AT_EPOCH":8382,"BSTAR":0.00018459555,"MEAN_MOTION_DOT":0.00005353,"MEAN_MOTION_DDOT":0},{"OBJECT_NAME":"FLOCK 4G-3","OBJECT_ID":"2025-009AG","EPOCH":"2026-07-19T04:18:56.675232","CLASSIFICATION_TYPE":"U","MEAN_MOTION":15.29919783,"ECCENTRICITY":0.00036174,"INCLINATION":97.4016,"RA_OF_ASC_NODE":282.0548,"ARG_OF_PERICENTER":158.9967,"MEAN_ANOMALY":201.1423,"EPHEMERIS_TYPE":0,"NORAD_CAT_ID":62639,"ELEMENT_SET_NO":999,"REV_AT_EPOCH":8379,"BSTAR":0.00018653654,"MEAN_MOTION_DOT":0.00005327,"MEAN_MOTION_DDOT":0},{"OBJECT_NAME":"FLOCK 4G-27","OBJECT_ID":"2025-009AJ","EPOCH":"2026-07-19T04:47:23.201376","CLASSIFICATION_TYPE":"U","MEAN_MOTION":15.29851447,"ECCENTRICITY":0.0002933,"INCLINATION":97.3925,"RA_OF_ASC_NODE":281.4175,"ARG_OF_PERICENTER":158.9888,"MEAN_ANOMALY":201.1473,"EPHEMERIS_TYPE":0,"NORAD_CAT_ID":62641,"ELEMENT_SET_NO":999,"REV_AT_EPOCH":8379,"BSTAR":0.00017350425,"MEAN_MOTION_DOT":0.00004939,"MEAN_MOTION_DDOT":0},{"OBJECT_NAME":"FLOCK 4G-29","OBJECT_ID":"2025-009AK","EPOCH":"2026-07-19T04:26:05.838720","CLASSIFICATION_TYPE":"U","MEAN_MOTION":15.29897544,"ECCENTRICITY":0.00037991,"INCLINATION":97.4012,"RA_OF_ASC_NODE":282.0192,"ARG_OF_PERICENTER":155.7387,"MEAN_ANOMALY":204.4033,"EPHEMERIS_TYPE":0,"NORAD_CAT_ID":62642,"ELEMENT_SET_NO":999,"REV_AT_EPOCH":8379,"BSTAR":0.00014421458,"MEAN_MOTION_DOT":0.00004098,"MEAN_MOTION_DDOT":0},{"OBJECT_NAME":"FLOCK 4G-22","OBJECT_ID":"2025-009AN","EPOCH":"2026-07-19T04:52:59.903904","CLASSIFICATION_TYPE":"U","MEAN_MOTION":15.29815823,"ECCENTRICITY":0.0003299,"INCLINATION":97.3997,"RA_OF_ASC_NODE":282.0712,"ARG_OF_PERICENTER":152.0185,"MEAN_ANOMALY":208.1234,"EPHEMERIS_TYPE":0,"NORAD_CAT_ID":62645,"ELEMENT_SET_NO":999,"REV_AT_EPOCH":8381,"BSTAR":0.00017474002,"MEAN_MOTION_DOT":0.00004969,"MEAN_MOTION_DDOT":0},{"OBJECT_NAME":"FLOCK 4G-25","OBJECT_ID":"2025-009AP","EPOCH":"2026-07-19T04:14:17.719008","CLASSIFICATION_TYPE":"U","MEAN_MOTION":15.30053578,"ECCENTRICITY":0.00027816,"INCLINATION":97.4007,"RA_OF_ASC_NODE":282.125,"ARG_OF_PERICENTER":154.5612,"MEAN_ANOMALY":205.5766,"EPHEMERIS_TYPE":0,"NORAD_CAT_ID":62646,"ELEMENT_SET_NO":999,"REV_AT_EPOCH":8381,"BSTAR":0.00017713247,"MEAN_MOTION_DOT":0.00005076,"MEAN_MOTION_DDOT":0}]}
