FLOCK 4BE-3             
1 60561U 24149CX  26200.20288232  .00009917  00000+0  23086-3 0  9992
2 60561  97.3687 284.4418 0005288 157.2285 202.9198 15.42477975107273
FLOCK 4BE-19            
1 60563U 24149CZ  26200.18388163  .00015536  00000+0  32239-3 0  9999
2 60563  97.3734 286.1287 0006125 163.2101 196.9352 15.45774861107367
FLOCK 4G-8              
1 62613U 25009E   26200.19660140  .00005189  00000+0  17973-3 0  9993
2 62613  97.3997 282.0779 0004403 178.4540 181.6715 15.30287008 83812
FLOCK 4G-13             
1 62621U 25009N   26200.16774270  .00049238  00000+0  89631-3 0  9992
2 62621  97.3942 284.1180 0006816 187.7888 172.3258 15.49325939 83947
FLOCK 4G-9              
1 62622U 25009P   26200.15840136  .00004718  00000+0  17253-3 0  9992
2 62622  97.3950 280.8819 0004472 190.2565 169.8584 15.28547885 83740
FLOCK 4G-7              
1 62624U 25009R   26200.18166728  .00005263  00000+0  18432-3 0  9991
2 62624  97.3933 281.3287 0003006 169.8608 190.2694 15.29919426 83790
FLOCK 4G-12             
1 62625U 25009S   26200.17718937  .00005876  00000+0  20606-3 0  9992
2 62625  97.4012 281.8776 0004602 175.4893 184.6390 15.29821310 83794
FLOCK 4G-11             
1 62629U 25009W   26200.22717303  .00005806  00000+0  20298-3 0  9998
2 62629  97.3912 281.4811 0003078 172.6204 187.5083 15.29930279 83812
FLOCK 4G-26             
1 62633U 25009AA  26200.17484626  .00006392  00000+0  22185-3 0  9994
2 62633  97.4009 282.0378 0004024 165.7545 194.3810 15.30124858 83806
FLOCK 4G-28             
1 62634U 25009AB  26200.19222992  .00004634  00000+0  13748-3 0  9995
2 62634  97.4019 284.8721 0002484 153.4279 206.7092 15.35320114 83994
FLOCK 4G-24             
1 62637U 25009AE  26200.18535342  .00005353  00000+0  18460-3 0  9998
2 62637  97.4016 282.3552 0004036 154.3580 205.7862 15.30412486 83824
FLOCK 4G-3              
1 62639U 25009AG  26200.17982263  .00005327  00000+0  18654-3 0  9993
2 62639  97.4016 282.0548 0003617 158.9967 201.1423 15.29919783 83790
FLOCK 4G-27             
1 62641U 25009AJ  26200.19957409  .00004939  00000+0  17350-3 0  9992
2 62641  97.3925 281.4175 0002933 158.9888 201.1473 15.29851447 83799
FLOCK 4G-29             
1 62642U 25009AK  26200.18478980  .00004098  00000+0  14421-3 0  9996
2 62642  97.4012 282.0192 0003799 155.7387 204.4033 15.29897544 83790
FLOCK 4G-22             
1 62645U 25009AN  26200.20347111  .00004969  00000+0  17474-3 0  9991
2 62645  97.3997 282.0712 0003299 152.0185 208.1234 15.29815823 83810
FLOCK 4G-25             
1 62646U 25009AP  26200.17659397  .00005076  00000+0  17713-3 0  9996
2 62646  97.4007 282.1250 0002781 154.5612 205.5766 15.30053578 83813
